[{"OBJECT_NAME":"STARLINK-6163","OBJECT_ID":"2023-090AD","EPOCH":"2026-03-09T00:04:10.228224","MEAN_MOTION":15.02537016,"ECCENTRICITY":0.00011862,"INCLINATION":43.003,"RA_OF_ASC_NODE":278.0726,"ARG_OF_PERICENTER":275.0659,"MEAN_ANOMALY":85.0048,"EPHEMERIS_TYPE":0,"CLASSIFICATION_TYPE":"U","NORAD_CAT_ID":57128,"ELEMENT_SET_NO":999,"REV_AT_EPOCH":15012,"BSTAR":3.9953291e-5,"MEAN_MOTION_DOT":3.36e-6,"MEAN_MOTION_DDOT":0},{"OBJECT_NAME":"RAPIDEYE 5","OBJECT_ID":"2008-040B","EPOCH":"2026-03-09T15:17:22.403904","MEAN_MOTION":15.02179038,"ECCENTRICITY":0.0014834,"INCLINATION":97.3944,"RA_OF_ASC_NODE":91.3825,"ARG_OF_PERICENTER":86.9831,"MEAN_ANOMALY":273.3091,"EPHEMERIS_TYPE":0,"CLASSIFICATION_TYPE":"U","NORAD_CAT_ID":33313,"ELEMENT_SET_NO":999,"REV_AT_EPOCH":95055,"BSTAR":0.00014028,"MEAN_MOTION_DOT":1.794e-5,"MEAN_MOTION_DDOT":0}]
